OBJECT_NAME,OBJECT_ID,EPOCH,MEAN_MOTION,ECCENTRICITY,INCLINATION,RA_OF_ASC_NODE,ARG_OF_PERICENTER,MEAN_ANOMALY,EPHEMERIS_TYPE,CLASSIFICATION_TYPE,NORAD_CAT_ID,ELEMENT_SET_NO,REV_AT_EPOCH,BSTAR,MEAN_MOTION_DOT,MEAN_MOTION_DDOT
ONEWEB-0302,2021-075S,2026-06-17T01:47:30.778656,13.12443619,.0001954,87.8949,350.6888,99.6213,260.5137,0,U,49091,999,23453,-.1127E-2,-.393E-5,0
ONEWEB-0304,2021-075T,2026-06-17T02:13:03.703008,13.17649490,.0002012,87.9133,5.8890,88.0331,272.1031,0,U,49092,999,23356,.96066E-4,.5E-6,0
ONEWEB-0305,2021-075U,2026-06-17T02:03:20.681856,13.17649437,.000224,87.9141,5.8747,86.1581,273.9807,0,U,49093,999,23359,.85021E-4,.46E-6,0
ONEWEB-0308,2021-075V,2026-06-17T01:37:45.065280,13.12443351,.000178,87.8948,350.6822,90.4872,269.6460,0,U,49094,999,23454,-.93255E-3,-.323E-5,0
ONEWEB-0309,2021-075W,2026-06-17T02:08:12.058080,13.17648745,.0001948,87.9134,5.8824,102.5480,257.5869,0,U,49095,999,23356,.12556E-3,.62E-6,0
ONEWEB-0310,2021-075X,2026-06-17T00:09:55.339200,13.12443596,.0001813,87.8939,350.7162,91.6768,268.4568,0,U,49096,999,23516,-.11032E-2,-.384E-5,0
ONEWEB-0311,2021-075Y,2026-06-17T02:17:55.760064,13.17650516,.0002281,87.9134,5.8807,81.8443,278.2947,0,U,49097,999,23361,-.20168E-4,.5E-7,0
ONEWEB-0312,2021-075Z,2026-06-17T00:50:27.729024,13.17653090,.0002183,87.9131,5.9034,91.2767,268.8615,0,U,49098,999,23358,.71649E-4,.41E-6,0
ONEWEB-0313,2021-075AA,2026-06-17T00:57:32.044608,13.17648649,.0001983,87.9127,5.9083,86.4491,273.6868,0,U,49099,999,23357,-.24976E-4,.3E-7,0
ONEWEB-0314,2021-075AB,2026-06-17T01:58:29.781696,13.17649346,.0002228,87.9141,5.8724,91.2439,268.8947,0,U,49100,999,23355,.14582E-3,.69E-6,0
ONEWEB-0315,2021-075AC,2026-06-17T01:20:40.818336,13.12442321,.0002057,87.8948,350.6703,81.5795,278.5566,0,U,49101,999,23515,-.63289E-4,-.1E-6,0
ONEWEB-0316,2021-075AD,2026-06-17T03:48:41.659200,13.18687122,.0001914,87.9164,335.4615,91.8779,268.2572,0,U,49102,999,23720,-.83631E-4,-.2E-6,0
ONEWEB-0317,2021-075AE,2026-06-17T01:25:33.593376,13.12442599,.0001537,87.8949,350.6934,114.1973,245.9316,0,U,49103,999,23517,-.5101E-3,-.171E-5,0
ONEWEB-0318,2021-075AF,2026-06-17T03:43:50.657088,13.18685984,.0002001,87.9171,335.4638,86.8419,273.2942,0,U,49104,999,23716,-.89215E-4,-.22E-6,0
ONEWEB-0319,2021-075AG,2026-06-17T02:20:21.222240,13.17649420,.0002204,87.9133,5.8857,76.5523,283.5854,0,U,49105,999,23359,-.57609E-4,-.9E-7,0
ONEWEB-0323,2021-075AH,2026-06-17T00:58:43.971744,13.12442783,.0002305,87.8948,350.6784,82.2488,277.8902,0,U,49106,999,23453,.96358E-3,.359E-5,0
ONEWEB-0329,2021-075AJ,2026-06-17T00:43:09.403680,13.17649402,.0002018,87.9133,5.8999,88.7861,271.3501,0,U,49107,999,23356,.55737E-4,.35E-6,0
ONEWEB-0330,2021-075AK,2026-06-17T01:17:23.574048,13.17648986,.0002036,87.9134,5.9156,93.2411,266.8953,0,U,49108,999,23360,.67442E-4,.39E-6,0
ONEWEB-0292,2021-083A,2026-06-17T03:58:25.001760,13.13471669,.0001939,87.8951,320.2425,91.7149,268.4202,0,U,49186,999,23092,.31107E-3,.126E-5,0
ONEWEB-0303,2021-083B,2026-06-17T00:00:27.590112,13.18686897,.0001971,87.9164,335.4934,89.3765,270.7593,0,U,49187,999,22995,-.86359E-4,-.21E-6,0
ONEWEB-0306,2021-083C,2026-06-16T23:45:53.062272,13.18687160,.0001761,87.9170,335.4831,99.8593,260.2738,0,U,49188,999,22999,-.10269E-4,.9E-7,0
ONEWEB-0307,2021-083D,2026-06-17T03:49:52.502016,13.13470533,.0001953,87.8954,320.2408,94.6983,265.4369,0,U,49189,999,23092,-.25358E-3,-.8E-6,0
ONEWEB-0320,2021-083E,2026-06-17T03:53:32.454816,13.18686368,.0001819,87.9160,335.4671,94.3950,265.7390,0,U,49190,999,22997,.49953E-5,.15E-6,0
ONEWEB-0321,2021-083F,2026-06-17T01:11:19.696128,13.20771847,.0001808,87.9196,274.4622,107.5241,252.6090,0,U,49191,999,23681,-.63307E-5,.1E-6,0
ONEWEB-0322,2021-083G,2026-06-17T03:43:44.990112,13.13468622,.0001407,87.8951,320.2419,102.2587,257.8700,0,U,49192,999,23091,-.3785E-3,-.125E-5,0
ONEWEB-0324,2021-083H,2026-06-16T23:36:10.214784,13.18684540,.0001977,87.9171,335.4900,97.7784,262.3573,0,U,49193,999,22997,-.13179E-3,-.39E-6,0
ONEWEB-0325,2021-083J,2026-06-16T23:41:01.875264,13.18685459,.000179,87.9161,335.4976,90.3381,269.7956,0,U,49194,999,22998,.19511E-3,.9E-6,0
ONEWEB-0326,2021-083K,2026-06-17T03:41:36.679200,13.18684908,.0002003,87.9170,335.4623,86.0209,274.1152,0,U,49195,999,22999,-.26303E-3,-.91E-6,0
ONEWEB-0327,2021-083L,2026-06-17T00:02:40.927776,13.18685157,.0001936,87.9162,335.4967,81.1712,278.9639,0,U,49196,999,22999,-.41567E-4,-.3E-7,0
ONEWEB-0328,2021-083M,2026-06-17T03:29:08.857824,13.13469994,.0001968,87.8961,320.2170,99.3565,260.7787,0,U,49197,999,23089,-.10529E-2,-.372E-5,0
ONEWEB-0331,2021-083N,2026-06-16T23:53:09.886848,13.18686951,.0002101,87.9170,335.4876,86.3479,273.7893,0,U,49198,999,22998,-.12379E-3,-.36E-6,0
ONEWEB-0333,2021-083P,2026-06-17T03:21:49.944096,13.13469845,.0001855,87.8951,320.2441,95.1079,265.0262,0,U,49199,999,23090,-.12851E-2,-.457E-5,0
ONEWEB-0334,2021-083Q,2026-06-16T23:45:20.477376,13.21293325,.0001803,87.9192,274.4851,129.4723,230.6570,0,U,49200,999,23676,-.15327E-1,-.6263E-4,0
ONEWEB-0335,2021-083R,2026-06-17T03:14:31.260192,13.13470568,.0001999,87.8953,320.2422,92.8644,267.2714,0,U,49201,999,23091,-.73718E-3,-.256E-5,0
ONEWEB-0336,2021-083S,2026-06-17T04:22:46.717824,13.13470186,.0002243,87.8952,320.2285,92.7649,267.3736,0,U,49202,999,23091,.84207E-3,.32E-5,0
ONEWEB-0337,2021-083T,2026-06-17T02:47:30.973344,13.13469940,.0002041,87.8951,320.2477,98.3357,261.8003,0,U,49203,999,23090,.46228E-3,.182E-5,0
ONEWEB-0338,2021-083U,2026-06-16T17:42:50.046336,13.20774081,.0001683,87.9185,274.5382,104.1344,255.9976,0,U,49204,999,23675,-.34746E-4,-.1E-7,0
ONEWEB-0339,2021-083V,2026-06-17T02:59:53.520864,13.13469710,.0001662,87.8952,320.2385,104.2625,255.8689,0,U,49205,999,23088,-.24529E-3,-.77E-6,0
ONEWEB-0340,2021-083W,2026-06-16T23:33:45.339264,13.18685344,.0001985,87.9170,335.4961,91.4858,268.6502,0,U,49206,999,22994,-.13777E-3,-.41E-6,0
ONEWEB-0341,2021-083X,2026-06-16T23:43:28.125408,13.18685802,.0002213,87.9164,335.4978,101.6573,258.4808,0,U,49207,999,22996,.21267E-3,.97E-6,0
ONEWEB-0342,2021-083Y,2026-06-17T01:08:53.922048,13.20771297,.0001937,87.9194,274.4644,103.5329,256.6020,0,U,49208,999,23676,.23525E-4,.23E-6,0
ONEWEB-0343,2021-083Z,2026-06-16T23:55:36.779808,13.18686456,.0001626,87.9167,335.4950,105.3165,254.8147,0,U,49209,999,23001,-.94544E-4,-.24E-6,0
ONEWEB-0344,2021-083AA,2026-06-17T02:52:33.935808,13.13471677,.0002158,87.8942,320.2539,102.8244,257.3126,0,U,49210,999,23088,.22228E-3,.94E-6,0
ONEWEB-0345,2021-083AB,2026-06-17T04:30:04.902336,13.13470245,.0002075,87.8963,320.2213,102.6915,257.4446,0,U,49211,999,23090,.58725E-3,.227E-5,0
ONEWEB-0346,2021-083AC,2026-06-16T23:50:45.223008,13.18685962,.0002308,87.9160,335.4959,80.2504,279.8889,0,U,49212,999,22995,.3166E-4,.25E-6,0
ONEWEB-0348,2021-083AD,2026-06-16T17:37:59.547072,13.20770740,.0002469,87.9196,274.5308,96.6179,263.5235,0,U,49213,999,23675,-.50876E-5,.11E-6,0
ONEWEB-0350,2021-083AE,2026-06-17T03:04:20.000928,13.12942201,.000211,87.8957,320.2377,99.3125,260.8243,0,U,49214,999,23092,-.40623E-3,-.134E-5,0
ONEWEB-0351,2021-083AF,2026-06-16T17:28:05.167776,13.20770178,.0002015,87.9196,274.5308,125.9359,234.1962,0,U,49215,999,23671,.78172E-4,.45E-6,0
ONEWEB-0352,2021-083AG,2026-06-17T04:15:28.102176,13.13470523,.0001664,87.8953,320.2345,109.7695,250.3613,0,U,49216,999,23102,.74594E-3,.285E-5,0
ONEWEB-0354,2021-083AH,2026-06-17T01:23:26.488608,13.20772812,.0002401,87.9196,274.4640,100.2733,259.8671,0,U,49217,999,23679,-.25149E-4,.3E-7,0
ONEWEB-0355,2021-083AJ,2026-06-17T03:07:24.540960,13.13469646,.0001876,87.8950,320.2450,103.3521,256.7817,0,U,49218,999,23089,-.48257E-3,-.163E-5,0
ONEWEB-0357,2021-083AK,2026-06-16T18:02:14.040096,13.20772588,.0001941,87.9195,274.5191,106.7647,253.3699,0,U,49219,999,23675,-.95522E-4,-.26E-6,0
ONEWEB-0332,2021-090A,2026-06-17T01:35:36.261888,13.14501728,.0001696,87.8962,289.7330,101.6769,258.4552,0,U,49279,999,22756,-.34126E-3,-.114E-5,0
ONEWEB-0347,2021-090B,2026-06-16T17:47:41.510688,13.20771318,.000174,87.9194,274.5293,100.2316,259.9014,0,U,49280,999,23098,-.57739E-4,-.1E-6,0
ONEWEB-0349,2021-090C,2026-06-17T00:01:01.384608,13.20772951,.0002002,87.9194,274.4782,101.4454,258.6904,0,U,49281,999,22980,.20227E-3,.95E-6,0
ONEWEB-0353,2021-090D,2026-06-17T01:24:12.010176,13.14503009,.0001649,87.8965,289.7299,100.1588,259.9727,0,U,49282,999,22756,-.55468E-3,-.193E-5,0
ONEWEB-0356,2021-090E,2026-06-16T23:58:35.238144,13.20773583,.0002056,87.9195,274.4719,77.5004,282.6359,0,U,49283,999,22980,.77654E-4,.45E-6,0
ONEWEB-0358,2021-090F,2026-06-16T17:29:22.218432,13.20236829,.0002109,87.9198,274.5312,95.6276,264.5098,0,U,49284,999,23049,.89712E-4,.49E-6,0
ONEWEB-0359,2021-090G,2026-06-16T17:21:01.050048,13.20773097,.0002279,87.9195,274.5269,99.5206,260.6184,0,U,49285,999,23047,-.73507E-5,.1E-6,0
ONEWEB-0360,2021-090H,2026-06-17T00:22:48.887904,13.20775458,.0002132,87.9197,274.4747,102.8734,257.2638,0,U,49286,999,22982,-.29156E-2,-.1172E-4,0
ONEWEB-0361,2021-090J,2026-06-16T23:56:09.955680,13.20771335,.0002088,87.9196,274.4766,98.2589,261.8782,0,U,49287,999,23027,.13524E-4,.18E-6,0
ONEWEB-0362,2021-090K,2026-06-17T02:26:01.830048,13.19724072,.000193,87.9167,304.9948,107.1224,253.0120,0,U,49288,999,22690,.13463E-3,.67E-6,0
ONEWEB-0363,2021-090L,2026-06-17T00:17:58.851744,13.20770747,.0002055,87.9194,274.4739,91.2303,268.9066,0,U,49289,999,23028,.86736E-4,.48E-6,0
ONEWEB-0364,2021-090M,2026-06-17T01:13:44.518080,13.20771420,.0002006,87.9193,274.4742,101.5252,258.6107,0,U,49290,999,23142,.11422E-3,.59E-6,0
ONEWEB-0365,2021-090N,2026-06-17T02:39:40.997952,13.19724142,.0001824,87.9176,304.9815,101.1358,258.9980,0,U,49291,999,22641,-.8488E-4,-.21E-6,0
ONEWEB-0366,2021-090P,2026-06-17T01:19:37.931232,13.14502168,.0001977,87.8963,289.7327,100.2195,259.9157,0,U,49292,999,22754,-.80679E-3,-.286E-5,0
ONEWEB-0367,2021-090Q,2026-06-17T00:16:47.267616,13.20771313,.0001919,87.9196,274.4752,105.6259,254.5086,0,U,49293,999,22980,.73544E-4,.43E-6,0
